NOAA 15                 
1 25338U 98030A   20246.89846405  .00000025  00000-0  29058-4 0  9994
2 25338  98.7134 271.5399 0011098  42.7440 317.4601 14.25987836160014
DMSP 5D-3 F15 (USA 147) 
1 25991U 99067A   20246.93020264 -.00000096  00000-0 -25265-4 0  9998
2 25991  98.9772 218.9167 0008877 238.8904 180.9946 14.16473444 71393
METEOSAT-8 (MSG-1)      
1 27509U 02040B   20246.65829091  .00000122  00000-0  00000+0 0  9997
2 27509   6.8567  53.7552 0001619 135.4729  71.6167  1.00264689 66053
DMSP 5D-3 F16 (USA 172) 
1 28054U 03048A   20246.94840823 -.00000084  00000-0 -20772-4 0  9992
2 28054  98.9190 225.7657 0007840  11.5786  47.2494 14.13646605870739
NOAA 18                 
1 28654U 05018A   20246.86830366  .00000089  00000-0  72774-4 0  9991
2 28654  99.0372 303.9949 0014405  17.4915 342.6749 14.12536270787845
METEOSAT-9 (MSG-2)      
1 28912U 05049B   20246.86605396  .00000002  00000-0  00000-0 0  9999
2 28912   4.5850  69.8136 0001175  41.2028 186.7136  1.00267069 53843
FORMOSAT-3 FM6          
1 29047U 06011A   20246.63302409 -.00000164  00000-0 -47755-4 0  9996
2 29047  71.9780 312.4650 0052272 288.2273  71.3178 14.28747118752348
FORMOSAT-3 FM1          
1 29048U 06011B   20246.93370491  .00000020  00000-0  24226-4 0  9993
2 29048  71.9650 222.6658 0045640 247.5086 112.1215 14.28714384754871
FORMOSAT-3 FM5          
1 29049U 06011C   20246.86037473  .00000047  00000-0  34900-4 0  9995
2 29049  72.0214  34.9030 0036686 272.7149  86.9788 14.28795466750653
FORMOSAT-3 FM3          
1 29050U 06011D   20246.89678391  .00000121  00000-0  35708-4 0  9990
2 29050  72.0162 173.0102 0050030 186.3363 173.7164 14.58942140767623
FORMOSAT-3 FM4          
1 29051U 06011E   20246.57883000  .00000067  00000-0  41853-4 0  9998
2 29051  72.0049 297.3873 0067226 153.0147 207.4512 14.28826661753206
FORMOSAT-3 FM2          
1 29052U 06011F   20246.78274951  .00000056  00000-0  37968-4 0  9991
2 29052  72.0366  11.4045 0041432 233.5307 126.2009 14.28932293750742
GOES 13                 
1 29155U 06018A   20246.87765633  .00000021  00000-0  00000-0 0  9999
2 29155   0.0747 158.5920 0008241  40.3774 160.6730  1.00273854 22177
METOP-A                 
1 29499U 06044A   20246.94632123  .00000002  00000-0  20042-4 0  9995
2 29499  98.5159 291.0532 0001653  79.3227  46.4882 14.21488508719717
DMSP 5D-3 F17 (USA 191) 
1 29522U 06050A   20246.89705430 -.00000025  00000-0  97649-5 0  9999
2 29522  98.8003 262.1268 0009080 323.1138  36.9409 14.14015201713657
FENGYUN 3A              
1 32958U 08026A   20246.93615147 -.00000009  00000-0  15455-4 0  9997
2 32958  98.4125 228.6833 0009828 109.5145 250.7094 14.18632161635703
FENGYUN 2E              
1 33463U 08066A   20246.93799318 -.00000216  00000-0  00000-0 0  9992
2 33463   4.4981  68.2974 0002410 294.6409  43.7782  1.00267322 42891
NOAA 19                 
1 33591U 09005A   20247.16099639  .00000163  00000-0  11394-3 0  9994
2 33591  99.1937 254.5301 0013585 214.2608 145.7669 14.12429942596361
GOES 14                 
1 35491U 09033A   20246.62915413 -.00000111  00000-0  00000-0 0  9996
2 35491   0.4122 271.6387 0012867 298.9151 253.6620  1.00273635 40922
METEOR-M 1              
1 35865U 09049A   20246.90462395  .00000007  00000-0  22042-4 0  9992
2 35865  98.4445 230.6748 0002010 358.2101   1.9070 14.22247911568780
DMSP 5D-3 F18 (USA 210) 
1 35951U 09057A   20246.91645781  .00000053  00000-0  50857-4 0  9996
2 35951  98.6502 234.2211 0011715 142.2241 217.9756 14.13296893334622
GOES 15                 
1 36411U 10008A   20246.62461785  .00000035  00000-0  00000-0 0  9995
2 36411   0.0621 114.6817 0002645 328.3155 356.2544  1.00262629 38477
COMS 1                  
1 36744U 10032A   20246.81921014 -.00000363  00000-0  00000-0 0  9993
2 36744   0.0161 116.5069 0000777  40.3731 248.5860  1.00271270 29892
FENGYUN 3B              
1 37214U 10059A   20246.93626312  .00000010  00000-0  28548-4 0  9990
2 37214  99.0520 229.8900 0017873  49.3990 310.8740 14.15956211508645
SUOMI NPP               
1 37849U 11061A   20246.86807675 -.00000003  00000-0  19218-4 0  9990
2 37849  98.7389 183.7635 0001454  69.8861   6.0614 14.19542891458617
FENGYUN 2F              
1 38049U 12002A   20246.88777571 -.00000374  00000-0  00000-0 0  9998
2 38049   2.2374  83.2935 0000766  77.3142 253.6793  1.00267167 31691
METEOSAT-10 (MSG-3)     
1 38552U 12035B   20246.84734431  .00000046  00000-0  00000-0 0  9992
2 38552   1.3427 344.6320 0001773 145.3779 167.0128  1.00277213 29692
METOP-B                 
1 38771U 12049A   20246.92580157 -.00000004  00000-0  18240-4 0  9997
2 38771  98.6851 305.0254 0002038 118.4558 356.5518 14.21503302413034
FENGYUN 3C              
1 39260U 13052A   20246.86777878  .00000004  00000-0  23519-4 0  9991
2 39260  98.5436 294.1079 0010947 359.8742   0.2428 14.15844374359507
METEOR-M 2              
1 40069U 14037A   20246.87449245 -.00000053  00000-0 -50613-5 0  9991
2 40069  98.4972 281.4610 0006770  63.1379 297.0490 14.20674428319205
HIMAWARI-8              
1 40267U 14060A   20246.82165274 -.00000294  00000-0  00000-0 0  9995
2 40267   0.0180 182.9628 0001139 349.2558 246.6561  1.00272413 21560
FENGYUN 2G              
1 40367U 14090A   20246.88524587 -.00000319  00000-0  00000-0 0  9999
2 40367   2.2634  93.5725 0002372 314.5239 352.3608  1.00280727 20849
METEOSAT-11 (MSG-4)     
1 40732U 15034A   20246.84712323 -.00000014  00000-0  00000-0 0  9999
2 40732   0.6607 271.3205 0003391 234.2127 142.6099  1.00280304 18855
ELEKTRO-L 2             
1 41105U 15074A   20246.86256453 -.00000134  00000-0  00000+0 0  9999
2 41105   1.3810  96.3658 0003201  85.8326  96.2705  1.00267413 17327
HIMAWARI-9              
1 41836U 16064A   20246.82174000 -.00000293  00000-0  00000-0 0  9990
2 41836   0.0440 299.3819 0000972 201.6869 277.9366  1.00271582 13991
GOES 16                 
1 41866U 16071A   20246.77855823 -.00000266  00000-0  00000-0 0  9994
2 41866   0.0382 111.9951 0000783  95.1806 340.2871  1.00271987 13929
FENGYUN 4A              
1 41882U 16077A   20246.88629270 -.00000348  00000-0  00000-0 0  9996
2 41882   0.1281  88.4724 0004158  42.1620 275.5901  1.00271637 13799
CYGFM05                 
1 41884U 16078A   20246.40541224  .00000344  00000-0  19916-4 0  9994
2 41884  34.9565 301.9391 0015797  10.6297 349.4746 15.14673321205781
CYGFM04                 
1 41885U 16078B   20246.54732823  .00000324  00000-0  18603-4 0  9997
2 41885  34.9495 293.8358 0014026  22.7178 337.4152 15.15186505205874
CYGFM02                 
1 41886U 16078C   20246.40840647  .00000330  00000-0  18937-4 0  9994
2 41886  34.9587 296.4846 0014833  17.2784 342.8430 15.15185246205843
CYGFM01                 
1 41887U 16078D   20246.58134465  .00000324  00000-0  18964-4 0  9991
2 41887  34.9532 302.1016 0016234  12.8925 347.2198 15.14485711205796
CYGFM08                 
1 41888U 16078E   20246.42011554  .00000332  00000-0  19161-4 0  9997
2 41888  34.9501 298.5626 0015332  18.6673 341.4598 15.14901540205805
CYGFM06                 
1 41889U 16078F   20246.38761314  .00000354  00000-0  20161-4 0  9995
2 41889  34.9582 295.3054 0013789  16.8875 343.2293 15.15179694205847
CYGFM07                 
1 41890U 16078G   20246.56373805  .00000339  00000-0  19397-4 0  9993
2 41890  34.9519 293.2677 0013495  21.8210 338.3074 15.15178059205879
CYGFM03                 
1 41891U 16078H   20246.42760203  .00000336  00000-0  19213-4 0  9995
2 41891  34.9553 294.3824 0013010  19.1051 341.0146 15.15173480205852
FENGYUN 3D              
1 43010U 17072A   20246.89002426 -.00000027  00000-0  78793-5 0  9999
2 43010  98.7536 185.3519 0000874 170.2966 189.8230 14.19747510145189
NOAA 20                 
1 43013U 17073A   20246.81760794 -.00000019  00000-0  11553-4 0  9995
2 43013  98.7202 183.5769 0001477  93.8865 266.2480 14.19560465144635
GOES 17                 
1 43226U 18022A   20246.76625795  .00000079  00000-0  00000-0 0  9997
2 43226   0.0741 289.5861 0000351 245.0730 306.3615  1.00273714  9222
FENGYUN 2H              
1 43491U 18050A   20246.94355025 -.00000146  00000-0  00000-0 0  9994
2 43491   0.4794 270.6153 0003179 236.4551 254.2613  1.00273163  8326
METOP-C                 
1 43689U 18087A   20246.87039676 -.00000009  00000-0  15623-4 0  9995
2 43689  98.6915 305.3126 0003230 113.0616 247.0902 14.21501647 94598
GEO-KOMPSAT-2A          
1 43823U 18100A   20246.81921014 -.00000362  00000-0  00000-0 0  9992
2 43823   0.0234 272.6347 0001904 210.7189 282.2171  1.00269049  6419
IOD-1 GEMS              
1 44385U 98067QK  20246.50111714  .00024598  00000-0  27601-3 0  9995
2 44385  51.6391 304.3306 0001400 295.3789  64.7060 15.62498925 66532
METEOR-M2 2             
1 44387U 19038A   20246.88604836 -.00000038  00000-0  24976-5 0  9999
2 44387  98.6265 205.4183 0001998  44.1554 315.9784 14.23680722 60555
